ONEWEB-0706             
1 61611U 24188T   24313.91667824  .00051933  00000+0  63846-2 0  9993
2 61611  86.5816 162.0460 0005785 135.8038  42.2312 14.82754753  1914
ONEWEB-0707             
1 61612U 24188U   24313.89525868  .00005791  00000+0  71308-3 0  9996
2 61612  86.5771 162.0727 0002773 135.5270 224.6176 14.82802044  5881
ONEWEB-0708             
1 61613U 24188V   24313.89100288  .00005706  00000+0  70178-3 0  9992
2 61613  86.5757 162.0614 0003639 127.4603 232.6952 14.82850931  5882
